{
  "norad_id": 56352,
  "name": "STARLINK-5885",
  "history": [
    {
      "epoch": "2026-03-28T21:26:22.508448",
      "apogee_km": 564.5758444508274,
      "perigee_km": 561.4328956384707,
      "latitude_deg": -83.18880716867065,
      "longitude_deg": -99.04165728017688,
      "semi_major_axis_km": 6941.141370044648,
      "eccentricity": 0.0002264,
      "inclination_deg": 97.6063,
      "raan_deg": 89.0367,
      "arg_perigee_deg": 84.029,
      "mean_anomaly_deg": 276.1192,
      "mean_motion_rev_day": 15.01261777
    }
  ]
}